OBJECT C                
1 57582U 23117C   25264.34667778  .00011925  00000+0  44422-3 0  9994
2 57582  97.4378 338.9341 0010017 115.1292 245.0988 15.27568184117347
